ONEWEB-0229             
1 48779U 21045N   25109.11820163  .00000036  00000+0  60854-4 0  9991
2 48779  87.9091 343.7040 0001815  77.6337 282.4997 13.15547925189786
ONEWEB-0228             
1 48780U 21045P   25109.15161903 -.00000055  00000+0 -18053-3 0  9993
2 48780  87.9089 343.6743 0001710  77.2965 282.8357 13.15549823189706
ONEWEB-0232             
1 48781U 21045Q   25109.12610694 -.00000029  00000+0 -11084-3 0  9995
2 48781  87.9084 343.6782 0001746  76.0047 284.1277 13.15551080190012
ONEWEB-0231             
1 48782U 21045R   25108.57153532  .00000121  00000+0  28869-3 0  9997
2 48782  87.9081 343.8471 0001703  74.1112 286.0206 13.15547027189659
ONEWEB-0234             
1 48783U 21045S   25108.21104447 -.00000135  00000+0 -39208-3 0  9996
2 48783  87.9089 343.8714 0001764 121.2003 238.9300 13.15546065189739
ONEWEB-0238             
1 48784U 21045T   25108.54537977  .00000067  00000+0  14423-3 0  9995
2 48784  87.9087 343.8206 0001750  88.6703 271.4627 13.15550427189676
ONEWEB-0240             
1 48785U 21045U   25109.16333761  .00000130  00000+0  31016-3 0  9998
2 48785  87.9089 343.6645 0001363  76.9568 283.1715 13.15551985189772
ONEWEB-0246             
1 48786U 21045V   25109.15780167 -.00000126  00000+0 -36931-3 0  9992
2 48786  87.9090 343.6747 0001815  76.9218 283.2115 13.15547628189642
